{
  "type": "FeatureCollection",
  "features": [
    {
      "type": "Feature",
      "properties": {
        "norad_id": 44873,
        "name": "CSG-1",
        "group": "resource",
        "lat": 4.927357809141679,
        "lon": -11.5028248911236,
        "alt_km": 624.878092467311,
        "timestamp": "2025-12-12T11:38:31.074004+00:00",
        "meta_object_name": "CSG-1",
        "meta_object_id": "2019-092A",
        "meta_epoch": "2025-12-12T04:22:28.166016",
        "meta_mean_motion": 14.82163213,
        "meta_eccentricity": 0.0001442,
        "meta_inclination": 97.881,
        "meta_ra_of_asc_node": 167.5148,
        "meta_arg_of_pericenter": 84.9381,
        "meta_mean_anomaly": 275.1996,
        "meta_ephemeris_type": 0,
        "meta_classification_type": "U",
        "meta_norad_cat_id": 44873,
        "meta_element_set_no": 999,
        "meta_rev_at_epoch": 32377,
        "meta_bstar": 0.00013341,
        "meta_mean_motion_dot": 1.01e-05,
        "meta_mean_motion_ddot": 0,
        "tle_line1": "1 44873U 19092A   25346.18227044  .00001010  00000+0  13341-3 0  9991",
        "tle_line2": "2 44873  97.8810 167.5148 0001442  84.9381 275.1996 14.82163213323779"
      },
      "geometry": {
        "type": "Point",
        "coordinates": [
          -11.5028248911236,
          4.927357809141679
        ]
      }
    },
    {
      "type": "Feature",
      "properties": {
        "norad_id": 46277,
        "name": "NEMO-HD",
        "group": "resource",
        "lat": -77.37620584350161,
        "lon": 80.06784201679531,
        "alt_km": 453.46212740423107,
        "timestamp": "2025-12-12T11:38:31.074014+00:00",
        "meta_object_name": "NEMO-HD",
        "meta_object_id": "2020-061F",
        "meta_epoch": "2025-12-12T04:11:29.513760",
        "meta_mean_motion": 15.40308266,
        "meta_eccentricity": 0.0001917,
        "meta_inclination": 97.2212,
        "meta_ra_of_asc_node": 45.2795,
        "meta_arg_of_pericenter": 57.0603,
        "meta_mean_anomaly": 303.0828,
        "meta_ephemeris_type": 0,
        "meta_classification_type": "U",
        "meta_norad_cat_id": 46277,
        "meta_element_set_no": 999,
        "meta_rev_at_epoch": 29315,
        "meta_bstar": 0.00039267,
        "meta_mean_motion_dot": 0.00015758,
        "meta_mean_motion_ddot": 0,
        "tle_line1": "1 46277U 20061F   25346.17464715  .00015758  00000+0  39267-3 0  9995",
        "tle_line2": "2 46277  97.2212  45.2795 0001917  57.0603 303.0828 15.40308266293151"
      },
      "geometry": {
        "type": "Point",
        "coordinates": [
          80.06784201679531,
          -77.37620584350161
        ]
      }
    },
    {
      "type": "Feature",
      "properties": {
        "norad_id": 46984,
        "name": "SENTINEL-6A",
        "group": "resource",
        "lat": 4.495558885128375,
        "lon": 164.84085490466643,
        "alt_km": 1339.6638122829909,
        "timestamp": "2025-12-12T11:38:31.074023+00:00",
        "meta_object_name": "SENTINEL-6A",
        "meta_object_id": "2020-086A",
        "meta_epoch": "2025-12-11T20:37:32.818368",
        "meta_mean_motion": 12.80930603,
        "meta_eccentricity": 0.0007741,
        "meta_inclination": 66.0388,
        "meta_ra_of_asc_node": 164.1366,
        "meta_arg_of_pericenter": 269.2307,
        "meta_mean_anomaly": 90.7821,
        "meta_ephemeris_type": 0,
        "meta_classification_type": "U",
        "meta_norad_cat_id": 46984,
        "meta_element_set_no": 999,
        "meta_rev_at_epoch": 23633,
        "meta_bstar": 0.00012281,
        "meta_mean_motion_dot": -3.3e-07,
        "meta_mean_motion_ddot": 0,
        "tle_line1": "1 46984U 20086A   25345.85940762 -.00000033  00000+0  12281-3 0  9990",
        "tle_line2": "2 46984  66.0388 164.1366 0007741 269.2307  90.7821 12.80930603236335"
      },
      "geometry": {
        "type": "Point",
        "coordinates": [
          164.84085490466643,
          4.495558885128375
        ]
      }
    },
    {
      "type": "Feature",
      "properties": {
        "norad_id": 48079,
        "name": "GAOFEN-12 02",
        "group": "resource",
        "lat": 74.40209632985025,
        "lon": -49.6944993715326,
        "alt_km": 617.8511274154525,
        "timestamp": "2025-12-12T11:38:31.074034+00:00",
        "meta_object_name": "GAOFEN-12 02",
        "meta_object_id": "2021-026A",
        "meta_epoch": "2025-12-12T04:48:36.372672",
        "meta_mean_motion": 14.80674174,
        "meta_eccentricity": 0.0003532,
        "meta_inclination": 97.9852,
        "meta_ra_of_asc_node": 340.2094,
        "meta_arg_of_pericenter": 102.3321,
        "meta_mean_anomaly": 257.8287,
        "meta_ephemeris_type": 0,
        "meta_classification_type": "U",
        "meta_norad_cat_id": 48079,
        "meta_element_set_no": 999,
        "meta_rev_at_epoch": 25409,
        "meta_bstar": 0.00011788,
        "meta_mean_motion_dot": 8.53e-06,
        "meta_mean_motion_ddot": 0,
        "tle_line1": "1 48079U 21026A   25346.20042098  .00000853  00000+0  11788-3 0  9997",
        "tle_line2": "2 48079  97.9852 340.2094 0003532 102.3321 257.8287 14.80674174254098"
      },
      "geometry": {
        "type": "Point",
        "coordinates": [
          -49.6944993715326,
          74.40209632985025
        ]
      }
    },
    {
      "type": "Feature",
      "properties": {
        "norad_id": 48268,
        "name": "PLEIADES NEO 3",
        "group": "resource",
        "lat": 36.80444243618721,
        "lon": -115.1110980966693,
        "alt_km": 620.7995186750268,
        "timestamp": "2025-12-12T11:38:31.074044+00:00",
        "meta_object_name": "PLEIADES NEO 3",
        "meta_object_id": "2021-034A",
        "meta_epoch": "2025-12-12T06:08:16.261728",
        "meta_mean_motion": 14.8166979,
        "meta_eccentricity": 0.0001343,
        "meta_inclination": 97.8946,
        "meta_ra_of_asc_node": 58.7036,
        "meta_arg_of_pericenter": 99.0733,
        "meta_mean_anomaly": 261.0631,
        "meta_ephemeris_type": 0,
        "meta_classification_type": "U",
        "meta_norad_cat_id": 48268,
        "meta_element_set_no": 999,
        "meta_rev_at_epoch": 24997,
        "meta_bstar": 0.00014904,
        "meta_mean_motion_dot": 1.121e-05,
        "meta_mean_motion_ddot": 0,
        "tle_line1": "1 48268U 21034A   25346.25574377  .00001121  00000+0  14904-3 0  9993",
        "tle_line2": "2 48268  97.8946  58.7036 0001343  99.0733 261.0631 14.81669790249975"
      },
      "geometry": {
        "type": "Point",
        "coordinates": [
          -115.1110980966693,
          36.80444243618721
        ]
      }
    },
    {
      "type": "Feature",
      "properties": {
        "norad_id": 49070,
        "name": "PLEIADES NEO 4",
        "group": "resource",
        "lat": -36.95852586643181,
        "lon": 64.91797013236388,
        "alt_km": 630.9633540633204,
        "timestamp": "2025-12-12T11:38:31.074054+00:00",
        "meta_object_name": "PLEIADES NEO 4",
        "meta_object_id": "2021-073E",
        "meta_epoch": "2025-12-12T05:19:37.992864",
        "meta_mean_motion": 14.81676797,
        "meta_eccentricity": 0.0001242,
        "meta_inclination": 97.8942,
        "meta_ra_of_asc_node": 58.6661,
        "meta_arg_of_pericenter": 91.8446,
        "meta_mean_anomaly": 268.2909,
        "meta_ephemeris_type": 0,
        "meta_classification_type": "U",
        "meta_norad_cat_id": 49070,
        "meta_element_set_no": 999,
        "meta_rev_at_epoch": 23368,
        "meta_bstar": 9.3945e-07,
        "meta_mean_motion_dot": -4.5e-07,
        "meta_mean_motion_ddot": 0,
        "tle_line1": "1 49070U 21073E   25346.22196751 -.00000045  00000+0  93945-6 0  9991",
        "tle_line2": "2 49070  97.8942  58.6661 0001242  91.8446 268.2909 14.81676797233688"
      },
      "geometry": {
        "type": "Point",
        "coordinates": [
          64.91797013236388,
          -36.95852586643181
        ]
      }
    },
    {
      "type": "Feature",
      "properties": {
        "norad_id": 49260,
        "name": "LANDSAT 9",
        "group": "resource",
        "lat": 1.7446851270698895,
        "lon": 54.34791569521694,
        "alt_km": 705.2508129803746,
        "timestamp": "2025-12-12T11:38:31.074064+00:00",
        "meta_object_name": "LANDSAT 9",
        "meta_object_id": "2021-088A",
        "meta_epoch": "2025-12-12T03:23:36.494304",
        "meta_mean_motion": 14.57097003,
        "meta_eccentricity": 0.0001181,
        "meta_inclination": 98.2092,
        "meta_ra_of_asc_node": 54.2612,
        "meta_arg_of_pericenter": 88.788,
        "meta_mean_anomaly": 271.3453,
        "meta_ephemeris_type": 0,
        "meta_classification_type": "U",
        "meta_norad_cat_id": 49260,
        "meta_element_set_no": 999,
        "meta_rev_at_epoch": 22376,
        "meta_bstar": 0.00016838,
        "meta_mean_motion_dot": 7.13e-06,
        "meta_mean_motion_ddot": 0,
        "tle_line1": "1 49260U 21088A   25346.14139461  .00000713  00000+0  16838-3 0  9998",
        "tle_line2": "2 49260  98.2092  54.2612 0001181  88.7880 271.3453 14.57097003223764"
      },
      "geometry": {
        "type": "Point",
        "coordinates": [
          54.34791569521694,
          1.7446851270698895
        ]
      }
    }
  ]
}